{
  "norad_id": 58531,
  "name": "STARLINK-31012",
  "history": [
    {
      "epoch": "2026-03-28T20:53:35.634912",
      "apogee_km": 476.16250213269996,
      "perigee_km": 474.3236031969682,
      "latitude_deg": 6.457786867254964,
      "longitude_deg": 116.67292768019252,
      "semi_major_axis_km": 6853.380052664834,
      "eccentricity": 0.00013416,
      "inclination_deg": 53.1625,
      "raan_deg": 333.5342,
      "arg_perigee_deg": 110.5596,
      "mean_anomaly_deg": 249.5549,
      "mean_motion_rev_day": 15.30190628
    },
    {
      "epoch": "2026-03-29T01:35:45.492000",
      "apogee_km": 476.13250501025686,
      "perigee_km": 474.38077759553926,
      "latitude_deg": -6.118075413740076,
      "longitude_deg": 135.48388000018895,
      "semi_major_axis_km": 6853.393641302898,
      "eccentricity": 0.0001278,
      "inclination_deg": 53.1619,
      "raan_deg": 332.6246,
      "arg_perigee_deg": 109.6894,
      "mean_anomaly_deg": 250.4245,
      "mean_motion_rev_day": 15.30186077
    }
  ]
}